{"_meta":{"version":"1.0.20240113","generated":"2024-01-13T18:33:03.085Z","url":"https://raw.githubusercontent.com/osmlab/name-suggestion-index/main/dist/nsi.json","hash":"b81e8ba2f1a1cdae2004d4463020bdfc"},"nsi":{"brands/amenity/bank":{"properties":{"path":"brands/amenity/bank","exclude":{"generic":[],"named":[]}},"items":[{"displayName":"山河银行","id":"7c59fb-b7a026","locationSet":{"include":["001"]},"tags":{"amenity":"bank","brand":"山河银行","name":"山河银行"}}],"templates":[]},"brands/amenity/cafe":{"properties":{"path":"brands/amenity/cafe","exclude":{"generic":[],"named":[]}},"items":[{"displayName":"这↑里↓奶茶","id":"963d94-e1ef51","locationSet":{"include":["001"]},"tags":{"amenity":"cafe","brand":"这↑里↓奶茶","cuisine":"bubble_tea","name":"这↑里↓奶茶","takeaway":"yes"}}],"templates":[]},"brands/amenity/cinema":{"properties":{"path":"brands/amenity/cinema","exclude":{"generic":[],"named":[]}},"items":[{"countryRestrictions":{"allowed":["FSA"],"ask":[],"no":["*"]},"displayName":"Archantan Film Company","id":"archantanfilmcompany-f33303","locationSet":{"include":["001"]},"tags":{"amenity":"cinema","brand":"Archantan Film Company","name":"Archantan Film Company"}},{"countryRestrictions":{"allowed":["FSA:NW","FSA:HL","FSA:WL"],"ask":["FSA:SE"],"no":["FSA:AL","FSA:MD","FSA:CT","FSA:NE","FSA:MA"]},"displayName":"Blue Sparrow Cinema","id":"bluesparrowcinema-f33303","locationSet":{"include":["001"]},"originCountry":"FSA","tags":{"amenity":"cinema","brand":"Blue Sparrow Cinema","name":"Blue Sparrow Cinema"}},{"countryRestrictions":{"allowed":["Lutang"],"ask":[],"no":["*"]},"displayName":"MoviePlanet","id":"movieplanet-f33303","locationSet":{"include":["001"]},"tags":{"amenity":"cinema","brand":"MoviePlanet","name":"MoviePlanet"}},{"countryRestrictions":{"allowed":["FSA"],"ask":[],"no":["*"]},"displayName":"Screeners","id":"screeners-f33303","locationSet":{"include":["001"]},"tags":{"amenity":"cinema","brand":"Screeners","name":"Screeners"}}],"templates":[]},"brands/amenity/pharmacy":{"properties":{"path":"brands/amenity/pharmacy","exclude":{"generic":[],"named":[]}},"items":[{"countryRestrictions":{"no":[],"ask":[],"allowed":["*"]},"displayName":"Ōdasamo Takeri 大山清","id":"odasamotakeri-f5140f","locationSet":{"include":["001"]},"tags":{"amenity":"pharmacy","brand":"Ōdasamo Takeri","healthcare":"pharmacy","name":"Ōdasamo Takeri","name:en":"Ōdasamo Takeri","name:izaki":"大山清"}},{"displayName":"Pills & Syrups","id":"pillsandsyrups-f5140f","locationSet":{"include":["001"]},"tags":{"amenity":"pharmacy","brand":"Pills & Syrups","healthcare":"pharmacy","name":"Pills & Syrups","name:en":"Pills & Syrups"}},{"displayName":"Ross Medicines","id":"rossmedicines-f5140f","locationSet":{"include":["001"]},"tags":{"amenity":"pharmacy","brand":"Ross Medicines","healthcare":"pharmacy","name":"Ross Medicines","name:en":"Ross Medicines"}}],"templates":[]},"brands/amenity/post_office":{"properties":{"path":"brands/amenity/post_office","exclude":{"generic":[],"named":[]}},"items":[{"displayName":"华夏邮政","id":"33743b-27cb18","locationSet":{"include":["001"]},"tags":{"amenity":"post_office","brand":"华夏邮政","name":"华夏邮政","operator":"华夏共和国邮政部"}},{"displayName":"速达邮","id":"40246e-27cb18","locationSet":{"include":["001"]},"tags":{"amenity":"post_office","brand":"速达邮","name":"速达邮","operator":"上京速达邮物流管理有限公司"}}],"templates":[]},"brands/amenity/restaurant":{"properties":{"path":"brands/amenity/restaurant","exclude":{"generic":[],"named":[]}},"items":[{"countryRestrictions":{"allowed":["Lutang"],"ask":[],"no":[]},"creator":"Lemuria","displayName":"Ang Igado ni Maria","id":"angigadonimaria-2fabb0","locationSet":{"include":["001"]},"originCountry":"Lutang","tags":{"alt_name:en":"Maria's Igado","amenity":"restaurant","brand":"Ang Igado ni Maria","cuisine":"filipino","name":"Ang Igado ni Maria"}},{"countryRestrictions":{"allowed":["Lutang"],"ask":[],"no":[]},"creator":"Lemuria","displayName":"Cheat Day Meals","id":"cheatdaymeals-2fabb0","locationSet":{"include":["001"]},"originCountry":"Lutang","tags":{"amenity":"restaurant","brand":"Cheat Day Meals","name":"Cheat Day Meals"}},{"countryRestrictions":{"allowed":["FSA"],"ask":[],"no":["*"]},"displayName":"Cookin' Pizza","id":"cookinpizza-2fabb0","locationSet":{"include":["001"]},"tags":{"amenity":"restaurant","brand":"Cookin' Pizza","cuisine":"pizza","name":"Cookin' Pizza"}},{"countryRestrictions":{"allowed":["Lutang"],"ask":[],"no":[]},"creator":"Lemuria","displayName":"Cowboy FSA-Style Grill","id":"cowboyfsastylegrill-2fabb0","locationSet":{"include":["001"]},"originCountry":"Lutang","tags":{"amenity":"restaurant","brand":"Cowboy FSA-Style Grill","cuisine":"american;steak_house;archantan","name":"Cowboy FSA-Style Grill"}},{"countryRestrictions":{"allowed":["Lutang"],"ask":[],"no":[]},"creator":"Lemuria","displayName":"Lechon ni Lina","id":"lechonnilina-2fabb0","locationSet":{"include":["001"]},"originCountry":"Lutang","tags":{"amenity":"restaurant","brand":"Lechon ni Lina","cuisine":"filipino","name":"Lechon ni Lina"}},{"countryRestrictions":{"allowed":["Lutang"],"ask":[],"no":[]},"creator":"Lemuria","displayName":"Lovely Litson","id":"lovelylitson-2fabb0","locationSet":{"include":["001"]},"originCountry":"Lutang","tags":{"amenity":"restaurant","brand":"Lovely Litson","cuisine":"filipino","name":"Lovely Litson"}},{"countryRestrictions":{"allowed":["Lutang"],"ask":[],"no":[]},"creator":"Lemuria","displayName":"Milkfish Expert","id":"milkfishexpert-2fabb0","locationSet":{"include":["001"]},"originCountry":"Lutang","tags":{"amenity":"restaurant","brand":"Milkfish Expert","cuisine":"fish","name":"Milkfish Expert"}},{"countryRestrictions":{"allowed":["*"],"ask":[],"no":[]},"creator":"Lemuria","displayName":"Nalani's","id":"nalanis-2fabb0","locationSet":{"include":["001"]},"originCountry":"Lutang","tags":{"amenity":"restaurant","brand":"Nalani's","cuisine":"asian","name":"Nalani's"}},{"countryRestrictions":{"allowed":["Lutang"],"ask":[],"no":[]},"creator":"Lemuria","displayName":"Original Lutang Meals","id":"originallutangmeals-2fabb0","locationSet":{"include":["001"]},"originCountry":"Lutang","tags":{"amenity":"restaurant","brand":"Original Lutang Meals","cuisine":"filipino","name":"Original Lutang Meals"}},{"countryRestrictions":{"allowed":["Lutang"],"ask":[],"no":[]},"creator":"Lemuria","displayName":"P.C.N. Chicken","id":"pcnchicken-2fabb0","locationSet":{"include":["001"]},"originCountry":"Lutang","tags":{"amenity":"restaurant","brand":"P.C.N. Chicken","cuisine":"chicken","name":"P.C.N. Chicken"}},{"countryRestrictions":{"allowed":["Lutang"],"ask":[],"no":[]},"creator":"Lemuria","displayName":"Your Mom's Igado","id":"yourmomsigado-2fabb0","locationSet":{"include":["001"]},"originCountry":"Lutang","tags":{"amenity":"restaurant","brand":"Your Mom's Igado","cuisine":"filipino","name":"Your Mom's Igado"}}],"templates":[]},"brands/office/insurance":{"properties":{"path":"brands/office/insurance","exclude":{"generic":[],"named":[]}},"items":[{"displayName":"冚家人寿","id":"b9a9a5-b9b33f","locationSet":{"include":["001"]},"tags":{"brand":"冚家人寿","name":"冚家人寿","office":"insurance"}}],"templates":[]},"brands/shop/convenience":{"properties":{"path":"brands/shop/convenience","exclude":{"generic":[],"named":[]}},"items":[{"displayName":"24 Mart","id":"24mart-4d6b4b","locationSet":{"include":["001"]},"tags":{"brand":"24 Mart","name":"24 Mart","shop":"convenience"}},{"displayName":"9-Eleven","id":"9eleven-4d6b4b","locationSet":{"include":["001"]},"matchNames":["911","九·一一","九◼一"],"tags":{"brand":"9-Eleven","name":"9-Eleven","shop":"convenience"}},{"displayName":"AS News","id":"asnews-4d6b4b","locationSet":{"include":["001"]},"tags":{"brand":"AS News","name":"AS News","shop":"convenience"}},{"displayName":"Co-op Locul","id":"cooplocul-4d6b4b","locationSet":{"include":["001"]},"tags":{"brand":"Co-op Locul","name":"Co-op Locul","shop":"convenience"}},{"displayName":"F-stór","id":"fstor-4d6b4b","locationSet":{"include":["001"]},"tags":{"brand":"F-stór","name":"F-stór","shop":"convenience"}},{"displayName":"Friendly Mart","id":"friendlymart-4d6b4b","locationSet":{"include":["001"]},"tags":{"brand":"Friendly Mart","name":"Friendly Mart","shop":"convenience"}},{"displayName":"Kioski","id":"kioski-4d6b4b","locationSet":{"include":["001"]},"tags":{"brand":"Kioski","name":"Kioski","shop":"convenience"}},{"displayName":"LeDéPa","id":"ledepa-4d6b4b","locationSet":{"include":["001"]},"tags":{"brand":"LeDéPa","name":"LeDéPa","shop":"convenience"}},{"displayName":"Mi Bodeguita","id":"mibodeguita-4d6b4b","locationSet":{"include":["001"]},"tags":{"brand":"Mi Bodeguita","name":"Mi Bodeguita","shop":"convenience"}},{"displayName":"PickIt!","id":"pickit-4d6b4b","locationSet":{"include":["001"]},"tags":{"brand":"PickIt!","name":"PickIt!","shop":"convenience"}},{"displayName":"Saturno","id":"saturno-4d6b4b","locationSet":{"include":["001"]},"tags":{"brand":"Saturno","name":"Saturno","shop":"convenience"}},{"displayName":"Six Twelve","id":"sixtwelve-4d6b4b","locationSet":{"include":["001"]},"tags":{"brand":"Six Twelve","name":"Six Twelve","shop":"convenience"}},{"displayName":"WicMart","id":"wicmart-4d6b4b","locationSet":{"include":["001"]},"tags":{"brand":"WicMart","name":"WicMart","shop":"convenience"}},{"displayName":"Zippy Mart","id":"zippymart-4d6b4b","locationSet":{"include":["001"]},"tags":{"brand":"Zippy Mart","name":"Zippy Mart","shop":"convenience"}},{"displayName":"冚家便利","id":"ca13ea-4d6b4b","locationSet":{"include":["001"]},"tags":{"brand":"冚家便利","name":"冚家便利","shop":"convenience"}}],"templates":[]},"brands/tourism/hotel":{"properties":{"path":"brands/tourism/hotel","exclude":{"generic":[],"named":[]}},"items":[{"countryRestrictions":{"allowed":["FSA"],"ask":[],"no":["*"]},"displayName":"Consulate Suites","id":"consulatesuites-779ccb","locationSet":{"include":["001"]},"tags":{"brand":"Consulate Suites","name":"Consulate Suites","tourism":"hotel"}},{"countryRestrictions":{"allowed":["FSA"],"ask":[],"no":["*"]},"displayName":"Hancher Elite","id":"hancherelite-779ccb","locationSet":{"include":["001"]},"tags":{"brand":"Hancher Elite","name":"Hancher Elite","tourism":"hotel"}},{"countryRestrictions":{"allowed":["FSA"],"ask":[],"no":["*"]},"displayName":"Holliston Inn","id":"hollistoninn-779ccb","locationSet":{"include":["001"]},"tags":{"brand":"Holliston Inn","name":"Holliston Inn","tourism":"hotel"}},{"countryRestrictions":{"allowed":["Lutang"],"ask":[],"no":["*"]},"creator":"Lemuria","displayName":"Hotel Berde","id":"hotelberde-779ccb","locationSet":{"include":["001"]},"originCountry":"Lutang","tags":{"brand":"Hotel Berde","name":"Hotel Berde","tourism":"hotel"}},{"countryRestrictions":{"allowed":["Lutang"],"ask":[],"no":["*"]},"creator":"Lemuria","displayName":"Hotel Kamusta","id":"hotelkamusta-779ccb","locationSet":{"include":["001"]},"originCountry":"Lutang","tags":{"brand":"Hotel Kamusta","name":"Hotel Kamusta","tourism":"hotel"}},{"countryRestrictions":{"allowed":["FSA"],"ask":[],"no":["*"]},"displayName":"Leyton Hotel","id":"leytonhotel-779ccb","locationSet":{"include":["001"]},"tags":{"brand":"Leyton Hotel","name":"Leyton Hotel","tourism":"hotel"}},{"countryRestrictions":{"allowed":["Lutang"],"ask":[],"no":["*"]},"creator":"Lemuria","displayName":"Madaling Araw Hotel","id":"madalingarawhotel-779ccb","locationSet":{"include":["001"]},"originCountry":"Lutang","tags":{"brand":"Madaling Araw Hotel","name":"Madaling Araw Hotel","tourism":"hotel"}},{"countryRestrictions":{"allowed":["FSA"],"ask":[],"no":["*"]},"displayName":"Meridian Suites","id":"meridiansuites-779ccb","locationSet":{"include":["001"]},"tags":{"brand":"Meridian Suites","name":"Meridian Suites","tourism":"hotel"}},{"countryRestrictions":{"allowed":["Lutang"],"ask":[],"no":["*"]},"creator":"Lemuria","displayName":"Pangtulog","id":"pangtulog-779ccb","locationSet":{"include":["001"]},"originCountry":"Lutang","tags":{"brand":"Pangtulog","name":"Pangtulog","tourism":"hotel"}},{"countryRestrictions":{"allowed":["FSA"],"ask":[],"no":["*"]},"displayName":"The Atrium","id":"theatrium-779ccb","locationSet":{"include":["001"]},"tags":{"brand":"The Atrium","name":"The Atrium","tourism":"hotel"}},{"countryRestrictions":{"allowed":["FSA"],"ask":[],"no":["*"]},"displayName":"The Bassett","id":"thebassett-779ccb","locationSet":{"include":["001"]},"tags":{"brand":"The Bassett","name":"The Bassett","tourism":"hotel"}},{"countryRestrictions":{"allowed":["FSA"],"ask":[],"no":["*"]},"displayName":"The Wilberding","id":"thewilberding-779ccb","locationSet":{"include":["001"]},"tags":{"brand":"The Wilberding","name":"The Wilberding","tourism":"hotel"}},{"countryRestrictions":{"allowed":["FSA"],"ask":[],"no":["*"]},"displayName":"UltraLiving","id":"ultraliving-779ccb","locationSet":{"include":["001"]},"tags":{"brand":"UltraLiving","name":"UltraLiving","tourism":"hotel"}},{"countryRestrictions":{"allowed":["FSA"],"ask":[],"no":["*"]},"displayName":"Waltherams Suites","id":"waltheramssuites-779ccb","locationSet":{"include":["001"]},"tags":{"brand":"Waltherams Suites","name":"Waltherams Suites","tourism":"hotel"}}],"templates":[]},"brands/tourism/love_hotel":{"properties":{"path":"brands/tourism/love_hotel","exclude":{"generic":[],"named":[]}},"items":[{"countryRestrictions":{"allowed":["Lutang"],"ask":[],"no":["*"]},"displayName":"Do It","id":"doit-c5c09d","locationSet":{"include":["001"]},"tags":{"amenity":"love_hotel","brand":"Do It","name":"Do It","tourism":"love_hotel"}},{"countryRestrictions":{"allowed":["Lutang"],"ask":[],"no":["*"]},"displayName":"HotelHour","id":"hotelhour-c5c09d","locationSet":{"include":["001"]},"tags":{"amenity":"love_hotel","brand":"HotelHour","name":"HotelHour","tourism":"love_hotel"}},{"countryRestrictions":{"allowed":["Lutang"],"ask":[],"no":["*"]},"displayName":"Isang Oras Lang","id":"isangoraslang-c5c09d","locationSet":{"include":["001"]},"tags":{"amenity":"love_hotel","brand":"Isang Oras Lang","name":"Isang Oras Lang","tourism":"love_hotel"}}],"templates":[]},"brands/tourism/motel":{"properties":{"path":"brands/tourism/motel","exclude":{"generic":[],"named":[]}},"items":[{"countryRestrictions":{"allowed":["FSA"],"ask":[],"no":["*"]},"displayName":"Econobudget Inn","id":"econobudgetinn-a19b96","locationSet":{"include":["001"]},"tags":{"brand":"Econobudget Inn","name":"Econobudget Inn","tourism":"motel"}},{"countryRestrictions":{"allowed":["FSA"],"ask":[],"no":["*"]},"displayName":"Hartt Motel","id":"harttmotel-a19b96","locationSet":{"include":["001"]},"tags":{"brand":"Hartt Motel","name":"Hartt Motel","tourism":"motel"}},{"countryRestrictions":{"allowed":["FSA"],"ask":[],"no":["*"]},"displayName":"Mega 9 Motel","id":"mega9motel-a19b96","locationSet":{"include":["001"]},"tags":{"brand":"Mega 9 Motel","name":"Mega 9 Motel","tourism":"motel"}},{"countryRestrictions":{"allowed":["FSA"],"ask":[],"no":["*"]},"displayName":"Towne Inn","id":"towneinn-a19b96","locationSet":{"include":["001"]},"tags":{"brand":"Towne Inn","name":"Towne Inn","tourism":"motel"}}],"templates":[]},"flags/man_made/flagpole":{"properties":{"path":"flags/man_made/flagpole","preserveTags":["^flag:name"],"exclude":{"generic":["^flagpole$"]}},"items":[{"displayName":"LGBT Pride","id":"lgbtpride-e5dc93","locationSet":{"include":["001"]},"matchNames":["gay","gay pride","lgbt","lgbtq","pride","rainbow"],"tags":{"flag:name":"LGBT Pride","flag:type":"cultural","flag:wikidata":"Q51401","man_made":"flagpole","subject":"LGBT Pride","subject:wikidata":"Q51406"}}],"templates":[]}}}